CTC1_L_00048001-01
1 36090U 24234HU  26070.40831019  .00000000  00000+0  00000-0 0  9993
2 36090  60.0000   0.0000 0000000   0.0000   0.0000 15.08756051    15
CTC1_L_00048001-02
1 36091U 23059MB  26070.40831019  .00000000  00000+0  00000-0 0  9998
2 36091  60.0000   0.0000 0000000   0.0000  90.0000 15.08756051    15
CTC1_L_00048001-03
1 36092U 25682PI  26070.40831019  .00000000  00000+0  00000-0 0  9993
2 36092  60.0000   0.0000 0000000   0.0000 180.0000 15.08756051    16
CTC1_L_00048001-04
1 36093U 23881RE  26070.40831019  .00000000  00000+0  00000-0 0  9993
2 36093  60.0000   0.0000 0000000   0.0000 270.0000 15.08756051    17
CTC1_L_00048002-01
1 36094U 24307WI  26070.40831019  .00000000  00000+0  00000-0 0  9998
2 36094  60.0000  12.0000 0000000   0.0000  12.0000 15.08756051    15
CTC1_L_00048002-02
1 36095U 24355QR  26070.40831019  .00000000  00000+0  00000-0 0  9992
2 36095  60.0000  12.0000 0000000   0.0000 102.0000 15.08756051    16
CTC1_L_00048002-03
1 36096U 22263KD  26070.40831019  .00000000  00000+0  00000-0 0  9999
2 36096  60.0000  12.0000 0000000   0.0000 192.0000 15.08756051    16
CTC1_L_00048002-04
1 36097U 22648KZ  26070.40831019  .00000000  00000+0  00000-0 0  9997
2 36097  60.0000  12.0000 0000000   0.0000 282.0000 15.08756051    17
CTC1_L_00048003-01
1 36098U 26461SL  26070.40831019  .00000000  00000+0  00000-0 0  9995
2 36098  60.0000  24.0000 0000000   0.0000  24.0000 15.08756051    15
CTC1_L_00048003-02
1 36099U 26248VP  26070.40831019  .00000000  00000+0  00000-0 0  9999
2 36099  60.0000  24.0000 0000000   0.0000 114.0000 15.08756051    16
CTC1_L_00048003-03
1 36100U 22326RH  26070.40831019  .00000000  00000+0  00000-0 0  9995
2 36100  60.0000  24.0000 0000000   0.0000 204.0000 15.08756051    19
CTC1_L_00048003-04
1 36101U 23602RI  26070.40831019  .00000000  00000+0  00000-0 0  9994
2 36101  60.0000  24.0000 0000000   0.0000 294.0000 15.08756051    19
CTC1_L_00048004-01
1 36102U 25400WF  26070.40831019  .00000000  00000+0  00000-0 0  9993
2 36102  60.0000  36.0000 0000000   0.0000  36.0000 15.08756051    17
CTC1_L_00048004-02
1 36103U 25160WX  26070.40831019  .00000000  00000+0  00000-0 0  9997
2 36103  60.0000  36.0000 0000000   0.0000 126.0000 15.08756051    18
CTC1_L_00048004-03
1 36104U 23637SS  26070.40831019  .00000000  00000+0  00000-0 0  9995
2 36104  60.0000  36.0000 0000000   0.0000 216.0000 15.08756051    19
CTC1_L_00048004-04
1 36105U 22941WK  26070.40831019  .00000000  00000+0  00000-0 0  9993
2 36105  60.0000  36.0000 0000000   0.0000 306.0000 15.08756051    10
CTC1_L_00048005-01
1 36106U 23176LI  26070.40831019  .00000000  00000+0  00000-0 0  9995
2 36106  60.0000  48.0000 0000000   0.0000  48.0000 15.08756051    17
CTC1_L_00048005-02
1 36107U 25108HT  26070.40831019  .00000000  00000+0  00000-0 0  9993
2 36107  60.0000  48.0000 0000000   0.0000 138.0000 15.08756051    18
CTC1_L_00048005-03
1 36108U 23707WO  26070.40831019  .00000000  00000+0  00000-0 0  9997
2 36108  60.0000  48.0000 0000000   0.0000 228.0000 15.08756051    19
CTC1_L_00048005-04
1 36109U 25355TM  26070.40831019  .00000000  00000+0  00000-0 0  9999
2 36109  60.0000  48.0000 0000000   0.0000 318.0000 15.08756051    10
CTC1_L_00048006-01
1 36110U 22391A   26070.40831019  .00000000  00000+0  00000-0 0  9998
2 36110  60.0000  60.0000 0000000   0.0000  60.0000 15.08756051    10
CTC1_L_00048006-02
1 36111U 26594ZY  26070.40831019  .00000000  00000+0  00000-0 0  9998
2 36111  60.0000  60.0000 0000000   0.0000 150.0000 15.08756051    11
CTC1_L_00048006-03
1 36112U 25564GZ  26070.40831019  .00000000  00000+0  00000-0 0  9995
2 36112  60.0000  60.0000 0000000   0.0000 240.0000 15.08756051    12
CTC1_L_00048006-04
1 36113U 22569ZL  26070.40831019  .00000000  00000+0  00000-0 0  9998
2 36113  60.0000  60.0000 0000000   0.0000 330.0000 15.08756051    13
CTC1_L_00048007-01
1 36114U 24109BT  26070.40831019  .00000000  00000+0  00000-0 0  9991
2 36114  60.0000  72.0000 0000000   0.0000  72.0000 15.08756051    10
CTC1_L_00048007-02
1 36115U 22557OT  26070.40831019  .00000000  00000+0  00000-0 0  9997
2 36115  60.0000  72.0000 0000000   0.0000 162.0000 15.08756051    11
CTC1_L_00048007-03
1 36116U 22692EN  26070.40831019  .00000000  00000+0  00000-0 0  9998
2 36116  60.0000  72.0000 0000000   0.0000 252.0000 15.08756051    12
CTC1_L_00048007-04
1 36117U 22395GM  26070.40831019  .00000000  00000+0  00000-0 0  9999
2 36117  60.0000  72.0000 0000000   0.0000 342.0000 15.08756051    13
CTC1_L_00048008-01
1 36118U 25314UY  26070.40831019  .00000000  00000+0  00000-0 0  9994
2 36118  60.0000  84.0000 0000000   0.0000  84.0000 15.08756051    10
CTC1_L_00048008-02
1 36119U 25190KS  26070.40831019  .00000000  00000+0  00000-0 0  9997
2 36119  60.0000  84.0000 0000000   0.0000 174.0000 15.08756051    11
CTC1_L_00048008-03
1 36120U 24909C   26070.40831019  .00000000  00000+0  00000-0 0  9996
2 36120  60.0000  84.0000 0000000   0.0000 264.0000 15.08756051    13
CTC1_L_00048008-04
1 36121U 25264ZV  26070.40831019  .00000000  00000+0  00000-0 0  9992
2 36121  60.0000  84.0000 0000000   0.0000 354.0000 15.08756051    14
CTC1_L_00048009-01
1 36122U 24454DQ  26070.40831019  .00000000  00000+0  00000-0 0  9993
2 36122  60.0000  96.0000 0000000   0.0000  96.0000 15.08756051    11
CTC1_L_00048009-02
1 36123U 26076VS  26070.40831019  .00000000  00000+0  00000-0 0  9996
2 36123  60.0000  96.0000 0000000   0.0000 186.0000 15.08756051    12
CTC1_L_00048009-03
1 36124U 23188IQ  26070.40831019  .00000000  00000+0  00000-0 0  9998
2 36124  60.0000  96.0000 0000000   0.0000 276.0000 15.08756051    13
CTC1_L_00048009-04
1 36125U 24977EU  26070.40831019  .00000000  00000+0  00000-0 0  9996
2 36125  60.0000  96.0000 0000000   0.0000   6.0000 15.08756051    15
CTC1_L_00048010-01
1 36126U 26766IR  26070.40831019  .00000000  00000+0  00000-0 0  9995
2 36126  60.0000 108.0000 0000000   0.0000 108.0000 15.08756051    13
CTC1_L_00048010-02
1 36127U 24582NP  26070.40831019  .00000000  00000+0  00000-0 0  9990
2 36127  60.0000 108.0000 0000000   0.0000 198.0000 15.08756051    13
CTC1_L_00048010-03
1 36128U 23847TV  26070.40831019  .00000000  00000+0  00000-0 0  9994
2 36128  60.0000 108.0000 0000000   0.0000 288.0000 15.08756051    14
CTC1_L_00048010-04
1 36129U 23821IO  26070.40831019  .00000000  00000+0  00000-0 0  9997
2 36129  60.0000 108.0000 0000000   0.0000  18.0000 15.08756051    16
CTC1_L_00048011-01
1 36130U 24428OY  26070.40831019  .00000000  00000+0  00000-0 0  9993
2 36130  60.0000 120.0000 0000000   0.0000 120.0000 15.08756051    16
CTC1_L_00048011-02
1 36131U 26652ZT  26070.40831019  .00000000  00000+0  00000-0 0  9995
2 36131  60.0000 120.0000 0000000   0.0000 210.0000 15.08756051    17
CTC1_L_00048011-03
1 36132U 26181NW  26070.40831019  .00000000  00000+0  00000-0 0  9993
2 36132  60.0000 120.0000 0000000   0.0000 300.0000 15.08756051    18
CTC1_L_00048011-04
1 36133U 22327BL  26070.40831019  .00000000  00000+0  00000-0 0  9992
2 36133  60.0000 120.0000 0000000   0.0000  30.0000 15.08756051    19
CTC1_L_00048012-01
1 36134U 22842NH  26070.40831019  .00000000  00000+0  00000-0 0  9995
2 36134  60.0000 132.0000 0000000   0.0000 132.0000 15.08756051    16
CTC1_L_00048012-02
1 36135U 24099KT  26070.40831019  .00000000  00000+0  00000-0 0  9992
2 36135  60.0000 132.0000 0000000   0.0000 222.0000 15.08756051    17
CTC1_L_00048012-03
1 36136U 23808GT  26070.40831019  .00000000  00000+0  00000-0 0  9990
2 36136  60.0000 132.0000 0000000   0.0000 312.0000 15.08756051    18
CTC1_L_00048012-04
1 36137U 22916J   26070.40831019  .00000000  00000+0  00000-0 0  9990
2 36137  60.0000 132.0000 0000000   0.0000  42.0000 15.08756051    19
CTC1_L_00048013-01
1 36138U 23102TD  26070.40831019  .00000000  00000+0  00000-0 0  9999
2 36138  60.0000 144.0000 0000000   0.0000 144.0000 15.08756051    16
CTC1_L_00048013-02
1 36139U 24974IV  26070.40831019  .00000000  00000+0  00000-0 0  9998
2 36139  60.0000 144.0000 0000000   0.0000 234.0000 15.08756051    17
CTC1_L_00048013-03
1 36140U 22942Q   26070.40831019  .00000000  00000+0  00000-0 0  9993
2 36140  60.0000 144.0000 0000000   0.0000 324.0000 15.08756051    19
CTC1_L_00048013-04
1 36141U 23696BX  26070.40831019  .00000000  00000+0  00000-0 0  9991
2 36141  60.0000 144.0000 0000000   0.0000  54.0000 15.08756051    10
CTC1_L_00048014-01
1 36142U 24929JE  26070.40831019  .00000000  00000+0  00000-0 0  9992
2 36142  60.0000 156.0000 0000000   0.0000 156.0000 15.08756051    17
CTC1_L_00048014-02
1 36143U 22368OI  26070.40831019  .00000000  00000+0  00000-0 0  9998
2 36143  60.0000 156.0000 0000000   0.0000 246.0000 15.08756051    18
CTC1_L_00048014-03
1 36144U 22504SG  26070.40831019  .00000000  00000+0  00000-0 0  9991
2 36144  60.0000 156.0000 0000000   0.0000 336.0000 15.08756051    19
CTC1_L_00048014-04
1 36145U 22733WB  26070.40831019  .00000000  00000+0  00000-0 0  9996
2 36145  60.0000 156.0000 0000000   0.0000  66.0000 15.08756051    10
CTC1_L_00048015-01
1 36146U 26944OO  26070.40831019  .00000000  00000+0  00000-0 0  9995
2 36146  60.0000 168.0000 0000000   0.0000 168.0000 15.08756051    17
CTC1_L_00048015-02
1 36147U 26334KS  26070.40831019  .00000000  00000+0  00000-0 0  9999
2 36147  60.0000 168.0000 0000000   0.0000 258.0000 15.08756051    18
CTC1_L_00048015-03
1 36148U 22257ZP  26070.40831019  .00000000  00000+0  00000-0 0  9990
2 36148  60.0000 168.0000 0000000   0.0000 348.0000 15.08756051    19
CTC1_L_00048015-04
1 36149U 25516YC  26070.40831019  .00000000  00000+0  00000-0 0  9992
2 36149  60.0000 168.0000 0000000   0.0000  78.0000 15.08756051    10
CTC1_L_00048016-01
1 36150U 26077KW  26070.40831019  .00000000  00000+0  00000-0 0  9997
2 36150  60.0000 180.0000 0000000   0.0000 180.0000 15.08756051    10
CTC1_L_00048016-02
1 36151U 25858L   26070.40831019  .00000000  00000+0  00000-0 0  9994
2 36151  60.0000 180.0000 0000000   0.0000 270.0000 15.08756051    11
